[{"CCSDS_OMM_VERS":"2.0","COMMENT":"GENERATED VIA SPACE-TRACK.ORG API","CREATION_DATE":"2021-03-15T18:04:02","ORIGINATOR":"18 SPCS","OBJECT_NAME":"TBA - TO BE ASSIGNED","OBJECT_ID":"","CENTER_NAME":"EARTH","REF_FRAME":"TEME","TIME_SYSTEM":"UTC","MEAN_ELEMENT_THEORY":"SGP4","EPOCH":"2021-03-14T23:06:04.724352","MEAN_MOTION":"6.12395696","ECCENTRICITY":"0.47127040","INCLINATION":"20.3253","RA_OF_ASC_NODE":"302.1404","ARG_OF_PERICENTER":"22.8193","MEAN_ANOMALY":"352.6839","EPHEMERIS_TYPE":"0","CLASSIFICATION_TYPE":"U","NORAD_CAT_ID":"88255","ELEMENT_SET_NO":"999","REV_AT_EPOCH":"12974","BSTAR":"0.00101790000000","MEAN_MOTION_DOT":"0.00008257","MEAN_MOTION_DDOT":"0.0000000000000","SEMIMAJOR_AXIS":"12619.644","PERIOD":"235.142","APOAPSIS":"12188.773","PERIAPSIS":"294.244","OBJECT_TYPE":"TBA","RCS_SIZE":null,"COUNTRY_CODE":null,"LAUNCH_DATE":null,"SITE":null,"DECAY_DATE":null,"FILE":"2982771","GP_ID":"173419997","TLE_LINE0":"0 TBA - TO BE ASSIGNED","TLE_LINE1":"1 88255U          21073.96255468 +.00008257 +00000+0 +10179-2 0  9997","TLE_LINE2":"2 88255  20.3253 302.1404 4712704  22.8193 352.6839  6.12395696129745"},{"CCSDS_OMM_VERS":"2.0","COMMENT":"GENERATED VIA SPACE-TRACK.ORG API","CREATION_DATE":"2021-05-04T18:41:58","ORIGINATOR":"18 SPCS","OBJECT_NAME":"TBA - TO BE ASSIGNED","OBJECT_ID":"1981-088","CENTER_NAME":"EARTH","REF_FRAME":"TEME","TIME_SYSTEM":"UTC","MEAN_ELEMENT_THEORY":"SGP4","EPOCH":"2021-05-03T17:41:56.711616","MEAN_MOTION":"5.35415519","ECCENTRICITY":"0.46754580","INCLINATION":"62.9508","RA_OF_ASC_NODE":"311.1253","ARG_OF_PERICENTER":"281.6555","MEAN_ANOMALY":"20.4180","EPHEMERIS_TYPE":"0","CLASSIFICATION_TYPE":"U","NORAD_CAT_ID":"88269","ELEMENT_SET_NO":"999","REV_AT_EPOCH":"14584","BSTAR":"0.00000000000000","MEAN_MOTION_DOT":"-0.00000027","MEAN_MOTION_DDOT":"0.0000000000000","SEMIMAJOR_AXIS":"13801.974","PERIOD":"268.950","APOAPSIS":"13876.894","PERIAPSIS":"970.784","OBJECT_TYPE":"TBA","RCS_SIZE":null,"COUNTRY_CODE":null,"LAUNCH_DATE":null,"SITE":null,"DECAY_DATE":null,"FILE":"3030685","GP_ID":"176610683","TLE_LINE0":"0 TBA - TO BE ASSIGNED","TLE_LINE1":"1 88269U 81088    21123.73746194 -.00000027 +00000+0 +00000+0 0  9996","TLE_LINE2":"2 88269  62.9508 311.1253 4675458 281.6555  20.4180  5.35415519145847"},{"CCSDS_OMM_VERS":"2.0","COMMENT":"GENERATED VIA SPACE-TRACK.ORG API","CREATION_DATE":"2021-05-11T17:58:38","ORIGINATOR":"18 SPCS","OBJECT_NAME":"TBA - TO BE ASSIGNED","OBJECT_ID":"2008-011","CENTER_NAME":"EARTH","REF_FRAME":"TEME","TIME_SYSTEM":"UTC","MEAN_ELEMENT_THEORY":"SGP4","EPOCH":"2021-05-11T12:28:07.922496","MEAN_MOTION":"3.14415274","ECCENTRICITY":"0.65228880","INCLINATION":"48.8714","RA_OF_ASC_NODE":"169.4959","ARG_OF_PERICENTER":"120.3361","MEAN_ANOMALY":"319.2195","EPHEMERIS_TYPE":"0","CLASSIFICATION_TYPE":"U","NORAD_CAT_ID":"88270","ELEMENT_SET_NO":"999","REV_AT_EPOCH":"7112","BSTAR":"0.00018244000000","MEAN_MOTION_DOT":"0.00000186","MEAN_MOTION_DDOT":"0.0000000000000","SEMIMAJOR_AXIS":"19681.858","PERIOD":"457.993","APOAPSIS":"26141.978","PERIAPSIS":"465.467","OBJECT_TYPE":"TBA","RCS_SIZE":null,"COUNTRY_CODE":null,"LAUNCH_DATE":null,"SITE":null,"DECAY_DATE":null,"FILE":"3034882","GP_ID":"177078247","TLE_LINE0":"0 TBA - TO BE ASSIGNED","TLE_LINE1":"1 88270U 08011    21131.51953614 +.00000186 +00000+0 +18244-3 0  9993","TLE_LINE2":"2 88270  48.8714 169.4959 6522888 120.3361 319.2195  3.14415274 71129"},{"CCSDS_OMM_VERS":"2.0","COMMENT":"GENERATED VIA SPACE-TRACK.ORG API","CREATION_DATE":"2021-03-08T18:47:29","ORIGINATOR":"18 SPCS","OBJECT_NAME":"TBA - TO BE ASSIGNED","OBJECT_ID":"","CENTER_NAME":"EARTH","REF_FRAME":"TEME","TIME_SYSTEM":"UTC","MEAN_ELEMENT_THEORY":"SGP4","EPOCH":"2021-03-08T02:14:27.816864","MEAN_MOTION":"3.90229680","ECCENTRICITY":"0.55836370","INCLINATION":"64.1185","RA_OF_ASC_NODE":"24.1280","ARG_OF_PERICENTER":"254.2462","MEAN_ANOMALY":"283.8113","EPHEMERIS_TYPE":"0","CLASSIFICATION_TYPE":"U","NORAD_CAT_ID":"88271","ELEMENT_SET_NO":"999","REV_AT_EPOCH":"10399","BSTAR":"-0.00596510000000","MEAN_MOTION_DOT":"-0.00000100","MEAN_MOTION_DDOT":"0.0000000000000","SEMIMAJOR_AXIS":"17042.042","PERIOD":"369.013","APOAPSIS":"20179.565","PERIAPSIS":"1148.250","OBJECT_TYPE":"TBA","RCS_SIZE":null,"COUNTRY_CODE":null,"LAUNCH_DATE":null,"SITE":null,"DECAY_DATE":null,"FILE":"2978112","GP_ID":"173033963","TLE_LINE0":"0 TBA - TO BE ASSIGNED","TLE_LINE1":"1 88271U          21067.09337751 -.00000100 +00000+0 -59651-2 0  9997","TLE_LINE2":"2 88271  64.1185  24.1280 5583637 254.2462 283.8113  3.90229680103999"},{"CCSDS_OMM_VERS":"2.0","COMMENT":"GENERATED VIA SPACE-TRACK.ORG API","CREATION_DATE":"2021-03-12T19:49:39","ORIGINATOR":"18 SPCS","OBJECT_NAME":"TBA - TO BE ASSIGNED","OBJECT_ID":"","CENTER_NAME":"EARTH","REF_FRAME":"TEME","TIME_SYSTEM":"UTC","MEAN_ELEMENT_THEORY":"SGP4","EPOCH":"2021-03-12T01:31:43.057920","MEAN_MOTION":"8.73891083","ECCENTRICITY":"0.33489030","INCLINATION":"20.6354","RA_OF_ASC_NODE":"218.2871","ARG_OF_PERICENTER":"152.0794","MEAN_ANOMALY":"230.8792","EPHEMERIS_TYPE":"0","CLASSIFICATION_TYPE":"U","NORAD_CAT_ID":"88288","ELEMENT_SET_NO":"999","REV_AT_EPOCH":"2467","BSTAR":"0.00864580000000","MEAN_MOTION_DOT":"0.00331424","MEAN_MOTION_DDOT":"0.0000000000000","SEMIMAJOR_AXIS":"9956.277","PERIOD":"164.780","APOAPSIS":"6912.403","PERIAPSIS":"243.881","OBJECT_TYPE":"TBA","RCS_SIZE":null,"COUNTRY_CODE":null,"LAUNCH_DATE":null,"SITE":null,"DECAY_DATE":null,"FILE":"2980639","GP_ID":"173261968","TLE_LINE0":"0 TBA - TO BE ASSIGNED","TLE_LINE1":"1 88288U          21071.06369280 +.00331424 +00000+0 +86458-2 0  9998","TLE_LINE2":"2 88288  20.6354 218.2871 3348903 152.0794 230.8792  8.73891083 24670"},{"CCSDS_OMM_VERS":"2.0","COMMENT":"GENERATED VIA SPACE-TRACK.ORG API","CREATION_DATE":"2021-04-14T18:23:42","ORIGINATOR":"18 SPCS","OBJECT_NAME":"TBA - TO BE ASSIGNED","OBJECT_ID":"2008-011","CENTER_NAME":"EARTH","REF_FRAME":"TEME","TIME_SYSTEM":"UTC","MEAN_ELEMENT_THEORY":"SGP4","EPOCH":"2020-07-23T11:19:33.564864","MEAN_MOTION":"2.88942492","ECCENTRICITY":"0.59732920","INCLINATION":"48.9215","RA_OF_ASC_NODE":"10.9610","ARG_OF_PERICENTER":"14.2137","MEAN_ANOMALY":"357.0599","EPHEMERIS_TYPE":"0","CLASSIFICATION_TYPE":"U","NORAD_CAT_ID":"88303","ELEMENT_SET_NO":"999","REV_AT_EPOCH":"4663","BSTAR":"0.00000000000000","MEAN_MOTION_DOT":"-0.00000060","MEAN_MOTION_DDOT":"0.0000000000000","SEMIMAJOR_AXIS":"20822.246","PERIOD":"498.369","APOAPSIS":"26881.846","PERIAPSIS":"2006.375","OBJECT_TYPE":"TBA","RCS_SIZE":null,"COUNTRY_CODE":null,"LAUNCH_DATE":null,"SITE":null,"DECAY_DATE":null,"FILE":"3018025","GP_ID":"175473498","TLE_LINE0":"0 TBA - TO BE ASSIGNED","TLE_LINE1":"1 88303U 08011    20205.47191626 -.00000060 +00000+0 +00000+0 0  9992","TLE_LINE2":"2 88303  48.9215  10.9610 5973292  14.2137 357.0599  2.88942492 46630"},{"CCSDS_OMM_VERS":"2.0","COMMENT":"GENERATED VIA SPACE-TRACK.ORG API","CREATION_DATE":"2021-10-10T06:16:10","ORIGINATOR":"18 SPCS","OBJECT_NAME":"TBA - TO BE ASSIGNED","OBJECT_ID":"","CENTER_NAME":"EARTH","REF_FRAME":"TEME","TIME_SYSTEM":"UTC","MEAN_ELEMENT_THEORY":"SGP4","EPOCH":"2021-09-29T13:59:34.422720","MEAN_MOTION":"15.13438705","ECCENTRICITY":"0.00106110","INCLINATION":"97.4433","RA_OF_ASC_NODE":"39.8339","ARG_OF_PERICENTER":"276.0666","MEAN_ANOMALY":"83.9356","EPHEMERIS_TYPE":"0","CLASSIFICATION_TYPE":"U","NORAD_CAT_ID":"88304","ELEMENT_SET_NO":"999","REV_AT_EPOCH":"1448","BSTAR":"0.00018262000000","MEAN_MOTION_DOT":"0.00003202","MEAN_MOTION_DDOT":"0.0000000000000","SEMIMAJOR_AXIS":"6903.860","PERIOD":"95.148","APOAPSIS":"533.050","PERIAPSIS":"518.399","OBJECT_TYPE":"TBA","RCS_SIZE":null,"COUNTRY_CODE":null,"LAUNCH_DATE":null,"SITE":null,"DECAY_DATE":null,"FILE":"3153819","GP_ID":"186730535","TLE_LINE0":"0 TBA - TO BE ASSIGNED","TLE_LINE1":"1 88304U          21272.58303730  .00003202  00000-0  18262-3 0  9995","TLE_LINE2":"2 88304  97.4433  39.8339 0010611 276.0666  83.9356 15.13438705 14480"},{"CCSDS_OMM_VERS":"2.0","COMMENT":"GENERATED VIA SPACE-TRACK.ORG API","CREATION_DATE":"2021-03-16T17:44:03","ORIGINATOR":"18 SPCS","OBJECT_NAME":"TBA - TO BE ASSIGNED","OBJECT_ID":"","CENTER_NAME":"EARTH","REF_FRAME":"TEME","TIME_SYSTEM":"UTC","MEAN_ELEMENT_THEORY":"SGP4","EPOCH":"2021-03-16T06:36:22.008672","MEAN_MOTION":"2.80405874","ECCENTRICITY":"0.68459750","INCLINATION":"20.4458","RA_OF_ASC_NODE":"31.4887","ARG_OF_PERICENTER":"354.0716","MEAN_ANOMALY":"0.6810","EPHEMERIS_TYPE":"0","CLASSIFICATION_TYPE":"U","NORAD_CAT_ID":"88313","ELEMENT_SET_NO":"999","REV_AT_EPOCH":"7286","BSTAR":"0.01422700000000","MEAN_MOTION_DOT":"0.00020297","MEAN_MOTION_DDOT":"0.0000000000000","SEMIMAJOR_AXIS":"21242.735","PERIOD":"513.541","APOAPSIS":"29407.324","PERIAPSIS":"321.877","OBJECT_TYPE":"TBA","RCS_SIZE":null,"COUNTRY_CODE":null,"LAUNCH_DATE":null,"SITE":null,"DECAY_DATE":null,"FILE":"2983367","GP_ID":"173478038","TLE_LINE0":"0 TBA - TO BE ASSIGNED","TLE_LINE1":"1 88313U          21075.27525473 +.00020297 +00000+0 +14227-1 0  9999","TLE_LINE2":"2 88313  20.4458  31.4887 6845975 354.0716   0.6810  2.80405874 72865"}]